{"type": "FeatureCollection", "features": [ {"type": "Feature", "properties": {"norad_id": 34547, "name": "COSMOS 2251 DEB", "group": "cosmos-2251-debris", "lat": -59.44150703982199, "lon": -66.81286658772842, "alt_km": 657.9672299237318, "timestamp": "2025-12-21T05:44:51.981902+00:00", "meta": {"OBJECT_NAME": "COSMOS 2251 DEB", "OBJECT_ID": "1993-036UH", "EPOCH": "2025-12-20T12:20:26.771136", "MEAN_MOTION": 14.72500623, "ECCENTRICITY": 0.00164886, "INCLINATION": 74.0319, "RA_OF_ASC_NODE": 85.5884, "ARG_OF_PERICENTER": 164.3583, "MEAN_ANOMALY": 195.8102, "EPHEMERIS_TYPE": 0, "CLASSIFICATION_TYPE": "U", "NORAD_CAT_ID": 34547, "ELEMENT_SET_NO": 999, "REV_AT_EPOCH": 88636, "BSTAR": 0.0011309172, "MEAN_MOTION_DOT": 7.172e-05, "MEAN_MOTION_DDOT": 0}, "tle": {"line1": "1 34547U 93036UH  25354.51419874  .00007172  00000+0  11309-2 0  9994", "line2": "2 34547  74.0319  85.5884 0016488 164.3583 195.8102 14.72500623886361"}}, "geometry": {"type": "Point", "coordinates": [-66.81286658772842, -59.44150703982199]}}, {"type": "Feature", "properties": {"norad_id": 34553, "name": "COSMOS 2251 DEB", "group": "cosmos-2251-debris", "lat": 48.46190564792533, "lon": -165.41263872081586, "alt_km": 708.2341983113847, "timestamp": "2025-12-21T05:44:51.981913+00:00", "meta": {"OBJECT_NAME": "COSMOS 2251 DEB", "OBJECT_ID": "1993-036UP", "EPOCH": "2025-12-20T13:17:54.956256", "MEAN_MOTION": 14.57788031, "ECCENTRICITY": 0.0019113, "INCLINATION": 74.0237, "RA_OF_ASC_NODE": 177.0235, "ARG_OF_PERICENTER": 253.7155, "MEAN_ANOMALY": 161.966, "EPHEMERIS_TYPE": 0, "CLASSIFICATION_TYPE": "U", "NORAD_CAT_ID": 34553, "ELEMENT_SET_NO": 999, "REV_AT_EPOCH": 88210, "BSTAR": 0.0006785, "MEAN_MOTION_DOT": 3.082e-05, "MEAN_MOTION_DDOT": 0}, "tle": {"line1": "1 34553U 93036UP  25354.55410829  .00003082  00000+0  67850-3 0  9995", "line2": "2 34553  74.0237 177.0235 0019113 253.7155 161.9660 14.57788031882105"}}, "geometry": {"type": "Point", "coordinates": [-165.41263872081586, 48.46190564792533]}}, {"type": "Feature", "properties": {"norad_id": 34554, "name": "COSMOS 2251 DEB", "group": "cosmos-2251-debris", "lat": -73.99651740014689, "lon": -162.88813870717166, "alt_km": 767.3118943969175, "timestamp": "2025-12-21T05:44:51.981923+00:00", "meta": {"OBJECT_NAME": "COSMOS 2251 DEB", "OBJECT_ID": "1993-036UQ", "EPOCH": "2025-12-20T05:48:54.109152", "MEAN_MOTION": 14.37952739, "ECCENTRICITY": 0.002333, "INCLINATION": 74.0392, "RA_OF_ASC_NODE": 285.1768, "ARG_OF_PERICENTER": 346.0878, "MEAN_ANOMALY": 165.1635, "EPHEMERIS_TYPE": 0, "CLASSIFICATION_TYPE": "U", "NORAD_CAT_ID": 34554, "ELEMENT_SET_NO": 999, "REV_AT_EPOCH": 87863, "BSTAR": 0.00024183, "MEAN_MOTION_DOT": 7.07e-06, "MEAN_MOTION_DDOT": 0}, "tle": {"line1": "1 34554U 93036UQ  25354.24229293  .00000707  00000+0  24183-3 0  9998", "line2": "2 34554  74.0392 285.1768 0023330 346.0878 165.1635 14.37952739878631"}}, "geometry": {"type": "Point", "coordinates": [-162.88813870717166, -73.99651740014689]}}, {"type": "Feature", "properties": {"norad_id": 34556, "name": "COSMOS 2251 DEB", "group": "cosmos-2251-debris", "lat": -31.03359955345705, "lon": -61.921317574494886, "alt_km": 637.7581665596736, "timestamp": "2025-12-21T05:44:51.981933+00:00", "meta": {"OBJECT_NAME": "COSMOS 2251 DEB", "OBJECT_ID": "1993-036US", "EPOCH": "2025-12-20T17:58:02.520192", "MEAN_MOTION": 14.78025681, "ECCENTRICITY": 0.00068003, "INCLINATION": 74.0159, "RA_OF_ASC_NODE": 109.1125, "ARG_OF_PERICENTER": 169.8839, "MEAN_ANOMALY": 311.7101, "EPHEMERIS_TYPE": 0, "CLASSIFICATION_TYPE": "U", "NORAD_CAT_ID": 34556, "ELEMENT_SET_NO": 999, "REV_AT_EPOCH": 88447, "BSTAR": 0.0013550836, "MEAN_MOTION_DOT": 9.769e-05, "MEAN_MOTION_DDOT": 0}, "tle": {"line1": "1 34556U 93036US  25354.74864028  .00009769  00000+0  13551-2 0  9999", "line2": "2 34556  74.0159 109.1125 0006800 169.8839 311.7101 14.78025681884475"}}, "geometry": {"type": "Point", "coordinates": [-61.921317574494886, -31.03359955345705]}}, {"type": "Feature", "properties": {"norad_id": 34560, "name": "COSMOS 2251 DEB", "group": "cosmos-2251-debris", "lat": -63.06405541158866, "lon": 91.2374396130185, "alt_km": 659.4712917966326, "timestamp": "2025-12-21T05:44:51.981943+00:00", "meta": {"OBJECT_NAME": "COSMOS 2251 DEB", "OBJECT_ID": "1993-036UW", "EPOCH": "2025-12-20T19:11:31.276320", "MEAN_MOTION": 14.72325113, "ECCENTRICITY": 0.00140663, "INCLINATION": 74.017, "RA_OF_ASC_NODE": 126.4319, "ARG_OF_PERICENTER": 208.7057, "MEAN_ANOMALY": 272.8847, "EPHEMERIS_TYPE": 0, "CLASSIFICATION_TYPE": "U", "NORAD_CAT_ID": 34560, "ELEMENT_SET_NO": 999, "REV_AT_EPOCH": 88370, "BSTAR": 0.0013555548, "MEAN_MOTION_DOT": 8.565e-05, "MEAN_MOTION_DDOT": 0}, "tle": {"line1": "1 34560U 93036UW  25354.79966755  .00008565  00000+0  13556-2 0  9997", "line2": "2 34560  74.0170 126.4319 0014066 208.7057 272.8847 14.72325113883704"}}, "geometry": {"type": "Point", "coordinates": [91.2374396130185, -63.06405541158866]}}, {"type": "Feature", "properties": {"norad_id": 34563, "name": "COSMOS 2251 DEB", "group": "cosmos-2251-debris", "lat": -9.133424668871802, "lon": -174.7977081265818, "alt_km": 737.2451445781253, "timestamp": "2025-12-21T05:44:51.981953+00:00", "meta": {"OBJECT_NAME": "COSMOS 2251 DEB", "OBJECT_ID": "1993-036UZ", "EPOCH": "2025-12-20T00:30:18.501408", "MEAN_MOTION": 14.46530475, "ECCENTRICITY": 0.00138969, "INCLINATION": 74.0369, "RA_OF_ASC_NODE": 190.1141, "ARG_OF_PERICENTER": 283.7366, "MEAN_ANOMALY": 204.2441, "EPHEMERIS_TYPE": 0, "CLASSIFICATION_TYPE": "U", "NORAD_CAT_ID": 34563, "ELEMENT_SET_NO": 999, "REV_AT_EPOCH": 88302, "BSTAR": 0.00029395545, "MEAN_MOTION_DOT": 1.033e-05, "MEAN_MOTION_DDOT": 0}, "tle": {"line1": "1 34563U 93036UZ  25354.02104747  .00001033  00000+0  29396-3 0  9994", "line2": "2 34563  74.0369 190.1141 0013896 283.7366 204.2441 14.46530475883028"}}, "geometry": {"type": "Point", "coordinates": [-174.7977081265818, -9.133424668871802]}}, {"type": "Feature", "properties": {"norad_id": 34564, "name": "COSMOS 2251 DEB", "group": "cosmos-2251-debris", "lat": -46.406393987848965, "lon": -155.21604794321667, "alt_km": 749.2090722307821, "timestamp": "2025-12-21T05:44:51.981963+00:00", "meta": {"OBJECT_NAME": "COSMOS 2251 DEB", "OBJECT_ID": "1993-036VA", "EPOCH": "2025-12-20T21:42:50.196960", "MEAN_MOTION": 14.40702951, "ECCENTRICITY": 0.00193122, "INCLINATION": 74.0317, "RA_OF_ASC_NODE": 222.9055, "ARG_OF_PERICENTER": 325.6519, "MEAN_ANOMALY": 50.1473, "EPHEMERIS_TYPE": 0, "CLASSIFICATION_TYPE": "U", "NORAD_CAT_ID": 34564, "ELEMENT_SET_NO": 999, "REV_AT_EPOCH": 88124, "BSTAR": 0.00017363968, "MEAN_MOTION_DOT": 5.29e-06, "MEAN_MOTION_DDOT": 0}, "tle": {"line1": "1 34564U 93036VA  25354.90474765  .00000529  00000+0  17364-3 0  9993", "line2": "2 34564  74.0317 222.9055 0019312 325.6519  50.1473 14.40702951881244"}}, "geometry": {"type": "Point", "coordinates": [-155.21604794321667, -46.406393987848965]}}, {"type": "Feature", "properties": {"norad_id": 34567, "name": "COSMOS 2251 DEB", "group": "cosmos-2251-debris", "lat": -26.30417751789914, "lon": -30.385612823012952, "alt_km": 764.0548518390733, "timestamp": "2025-12-21T05:44:51.981973+00:00", "meta": {"OBJECT_NAME": "COSMOS 2251 DEB", "OBJECT_ID": "1993-036VD", "EPOCH": "2025-12-20T19:14:28.599360", "MEAN_MOTION": 14.24024668, "ECCENTRICITY": 0.00742314, "INCLINATION": 74.0407, "RA_OF_ASC_NODE": 142.27, "ARG_OF_PERICENTER": 214.8446, "MEAN_ANOMALY": 269.2592, "EPHEMERIS_TYPE": 0, "CLASSIFICATION_TYPE": "U", "NORAD_CAT_ID": 34567, "ELEMENT_SET_NO": 999, "REV_AT_EPOCH": 87239, "BSTAR": 0.00016585843, "MEAN_MOTION_DOT": 3.66e-06, "MEAN_MOTION_DDOT": 0}, "tle": {"line1": "1 34567U 93036VD  25354.80171990  .00000366  00000+0  16586-3 0  9993", "line2": "2 34567  74.0407 142.2700 0074231 214.8446 269.2592 14.24024668872392"}}, "geometry": {"type": "Point", "coordinates": [-30.385612823012952, -26.30417751789914]}}, {"type": "Feature", "properties": {"norad_id": 34569, "name": "COSMOS 2251 DEB", "group": "cosmos-2251-debris", "lat": 35.52936028687501, "lon": -165.40178181507198, "alt_km": 706.0748655631114, "timestamp": "2025-12-21T05:44:51.981983+00:00", "meta": {"OBJECT_NAME": "COSMOS 2251 DEB", "OBJECT_ID": "1993-036VF", "EPOCH": "2025-12-20T19:33:25.690752", "MEAN_MOTION": 14.24771151, "ECCENTRICITY": 0.01576715, "INCLINATION": 73.9894, "RA_OF_ASC_NODE": 183.5346, "ARG_OF_PERICENTER": 10.0797, "MEAN_ANOMALY": 9.3302, "EPHEMERIS_TYPE": 0, "CLASSIFICATION_TYPE": "U", "NORAD_CAT_ID": 34569, "ELEMENT_SET_NO": 999, "REV_AT_EPOCH": 87083, "BSTAR": 0.00031496467, "MEAN_MOTION_DOT": 8.09e-06, "MEAN_MOTION_DDOT": 0}, "tle": {"line1": "1 34569U 93036VF  25354.81488068  .00000809  00000+0  31496-3 0  9992", "line2": "2 34569  73.9894 183.5346 0157671  10.0797   9.3302 14.24771151870836"}}, "geometry": {"type": "Point", "coordinates": [-165.40178181507198, 35.52936028687501]}}, {"type": "Feature", "properties": {"norad_id": 34570, "name": "COSMOS 2251 DEB", "group": "cosmos-2251-debris", "lat": -68.86997760141703, "lon": 155.38033521824028, "alt_km": 1031.1676450288505, "timestamp": "2025-12-21T05:44:51.981993+00:00", "meta": {"OBJECT_NAME": "COSMOS 2251 DEB", "OBJECT_ID": "1993-036VG", "EPOCH": "2025-12-20T08:39:52.015680", "MEAN_MOTION": 13.99831836, "ECCENTRICITY": 0.01902924, "INCLINATION": 73.9565, "RA_OF_ASC_NODE": 205.0284, "ARG_OF_PERICENTER": 85.8151, "MEAN_ANOMALY": 93.6336, "EPHEMERIS_TYPE": 0, "CLASSIFICATION_TYPE": "U", "NORAD_CAT_ID": 34570, "ELEMENT_SET_NO": 999, "REV_AT_EPOCH": 85707, "BSTAR": 0.00037263362, "MEAN_MOTION_DOT": 6.16e-06, "MEAN_MOTION_DDOT": 0}, "tle": {"line1": "1 34570U 93036VG  25354.36101870  .00000616  00000+0  37263-3 0  9991", "line2": "2 34570  73.9565 205.0284 0190292  85.8151  93.6336 13.99831836857076"}}, "geometry": {"type": "Point", "coordinates": [155.38033521824028, -68.86997760141703]}}]}